CAS-2T & KS-1Q          
1 41847U 16066G   20305.71691466  .00000157  00000-0  33958-4 0  9998
2 41847  98.6374 357.4929 0365625 182.6365 177.2904 14.38104580209005
NAYIF-1 (EO-88)         
1 42017U 17008BX  20305.88043659  .00003081  00000-0  11931-3 0  9993
2 42017  97.3464  11.3775 0005889 183.9935 176.1258 15.26915715206360
ZHUHAI-1 02 (CAS-4B)    
1 42759U 17034B   20305.64031729  .00000501  00000-0  43784-4 0  9990
2 42759  43.0194 358.7528 0009677 176.5056 319.2404 15.09927314186556
ZHUHAI-1 01 (CAS-4A)    
1 42761U 17034D   20305.64387919  .00000439  00000-0  39913-4 0  9997
2 42761  43.0199 357.9423 0010129 177.3153 319.7060 15.10006207186554
MAX VALIER SAT          
1 42778U 17036P   20305.89533456  .00001677  00000-0  74438-4 0  9999
2 42778  97.2891 355.6530 0010443 260.5216  99.4841 15.22874195186494
RADFXSAT (FOX-1B)       
1 43017U 17073E   20305.71280529  .00001293  00000-0  10577-3 0  9995
2 43017  97.7152 212.6411 0255801 326.6264  31.9042 14.79106201159303
FOX-1D (AO-92)          
1 43137U 18004AC  20305.77006156  .00001578  00000-0  67288-4 0  9999
2 43137  97.4336  15.9328 0007646 302.1365  57.9130 15.24403194155811
DIWATA-2B               
1 43678U 18084H   20305.91758329  .00000454  00000-0  50812-4 0  9996
2 43678  97.8989  64.4375 0011348  85.6696 274.5786 14.91668134109367
ES'HAIL 2               
1 43700U 18090A   20305.93729837  .00000153  00000-0  00000-0 0  9999
2 43700   0.0080 225.5695 0002212  22.8878 155.4425  1.00272960  7077
FOX-1CLIFF (AO-95)      
1 43770U 18099N   20305.91162258  .00000139  00000-0  17892-4 0  9996
2 43770  97.6936  14.8261 0015970 100.8406 259.4613 14.95079231104305
ITASAT 1                
1 43786U 18099AE  20305.74432260  .00000792  00000-0  76704-4 0  9999
2 43786  97.6953  15.1789 0016732  95.7075 264.6054 14.95404827104301
JY1SAT (JO-97)          
1 43803U 18099AX  20305.74205151  .00000881  00000-0  84297-4 0  9991
2 43803  97.6913  14.9650 0016683  96.0327 264.2796 14.95599211104301
PSAT2 (NO-104)          
1 44354U 19036R   20305.89272937  .00017712  00000-0  25433-3 0  9994
2 44354  28.5305 202.9424 0353944 330.8318  27.2924 15.06075858 74396
BRICSAT2 (NO-103)       
1 44355U 19036S   20305.90824166  .00038161  00000-0  50918-3 0  9991
2 44355  28.5287 185.4171 0323116 359.3221   0.6911 15.13961788 74572
JAISAT-1                
1 44419U 19038F   20305.87151145  .00001773  00000-0  10360-3 0  9996
2 44419  97.5565 266.0091 0022191  24.5880 335.6404 15.13024505 73222
DUCHIFAT-3              
1 44854U 19089C   20305.57080018  .00000689  00000-0  61952-4 0  9991
2 44854  36.9672  13.8682 0007502  75.9992 284.1586 14.99175776 48735
RS-44 & BREEZE-KM R/B   
1 44909U 19096E   20305.86474676 -.00000000  00000-0 -37129-4 0  9997
2 44909  82.5194 264.6615 0216241 267.6119  90.0211 12.79708618 39638
ORBITAL FACTORY 2 (OF-2)
1 45113U 19071C   20305.61210241  .00004220  00000-0  13771-3 0  9999
2 45113  51.6438  65.5668 0012835 186.0651 174.0177 15.33927728 42027
HUSKYSAT-1              
1 45119U 19071J   20305.70312345  .00002545  00000-0  87205-4 0  9995
2 45119  51.6429  64.6747 0012122 182.3428 177.7499 15.34098913 42035
SALSAT                  
1 46495U 20068K   20305.89584090  .00001236  00000-0  95526-4 0  9990
2 46495  97.6694 239.0710 0017798 123.4656 236.8267 15.03243205  4993
